IRIDIUM 7               
1 24793U 97020B   25110.68653597  .00000652  00000+0  21830-3 0  9990
2 24793  86.4024 200.9763 0001974  91.2442 268.8981 14.35892141463644
IRIDIUM 5               
1 24795U 97020D   25110.51125539  .00008284  00000+0  69218-3 0  9995
2 24795  86.3850 110.3276 0109272 346.8730  12.9657 14.93765882476854
IRIDIUM 4               
1 24796U 97020E   25110.70612427  .00000579  00000+0  18946-3 0  9995
2 24796  86.4022 197.8871 0002228  91.8824 268.2628 14.36797179464214
IRIDIUM 914             
1 24836U 97030A   25110.86961619  .00000742  00000+0  22558-3 0  9994
2 24836  86.3995 206.5851 0003561  75.9359 284.2236 14.40815556598878
IRIDIUM 16              
1 24841U 97030F   25110.81325451  .00000815  00000+0  25971-3 0  9996
2 24841  86.4058 229.3564 0000803 180.8451 179.2746 14.38657664458756
IRIDIUM 911             
1 24842U 97030G   25110.74382760  .00001119  00000+0  29868-3 0  9992
2 24842  86.4484 228.2155 0012107 292.0011  67.9906 14.47561672466777
IRIDIUM 17              
1 24870U 97034B   25110.83466408  .00000862  00000+0  28000-3 0  9990
2 24870  86.3925 258.8674 0002182 138.6601 221.4762 14.37764285455346
IRIDIUM 920             
1 24871U 97034C   25110.39999847  .00000884  00000+0  26648-3 0  9990
2 24871  86.3978 238.3996 0009420 272.3083  87.7038 14.41472202458259
